{"type": "FeatureCollection", "features": [{"type": "Feature", "properties": {"norad_id": 22675, "name": "COSMOS 2251", "group": "cosmos-2251-debris", "lat": -15.525165980431012, "lon": 121.10649370115661, "alt_km": 802.8708933577936, "timestamp": "2025-12-23T07:45:09.797506+00:00", "meta": {"OBJECT_NAME": "COSMOS 2251", "OBJECT_ID": "1993-036A", "EPOCH": "2025-12-22T22:27:54.447840", "MEAN_MOTION": 14.3320771, "ECCENTRICITY": 0.00243738, "INCLINATION": 74.04, "RA_OF_ASC_NODE": 297.2535, "ARG_OF_PERICENTER": 16.7168, "MEAN_ANOMALY": 343.4781, "EPHEMERIS_TYPE": 0, "CLASSIFICATION_TYPE": "U", "NORAD_CAT_ID": 22675, "ELEMENT_SET_NO": 999, "REV_AT_EPOCH": 69919, "BSTAR": 5.1858642e-05, "MEAN_MOTION_DOT": 1.17e-06, "MEAN_MOTION_DDOT": 0}, "tle": {"line1": "1 22675U 93036A   25356.93604685  .00000117  00000+0  51859-4 0  9995", "line2": "2 22675  74.0400 297.2535 0024373  16.7168 343.4781 14.33207710699192"}}, "geometry": {"type": "Point", "coordinates": [121.10649370115661, -15.525165980431012]}}, {"type": "Feature", "properties": {"norad_id": 33757, "name": "COSMOS 2251 DEB", "group": "cosmos-2251-debris", "lat": -29.7270934018862, "lon": 133.69581634265214, "alt_km": 791.5277733063394, "timestamp": "2025-12-23T07:45:09.797532+00:00", "meta": {"OBJECT_NAME": "COSMOS 2251 DEB", "OBJECT_ID": "1993-036E", "EPOCH": "2025-12-22T22:41:11.200992", "MEAN_MOTION": 14.32583497, "ECCENTRICITY": 0.00155942, "INCLINATION": 74.0374, "RA_OF_ASC_NODE": 304.9786, "ARG_OF_PERICENTER": 316.6349, "MEAN_ANOMALY": 107.0351, "EPHEMERIS_TYPE": 0, "CLASSIFICATION_TYPE": "U", "NORAD_CAT_ID": 33757, "ELEMENT_SET_NO": 999, "REV_AT_EPOCH": 88142, "BSTAR": 4.3845704e-05, "MEAN_MOTION_DOT": 9.3e-07, "MEAN_MOTION_DDOT": 0}, "tle": {"line1": "1 33757U 93036E   25356.94526853  .00000093  00000+0  43846-4 0  9999", "line2": "2 33757  74.0374 304.9786 0015594 316.6349 107.0351 14.32583497881421"}}, "geometry": {"type": "Point", "coordinates": [133.69581634265214, -29.7270934018862]}}, {"type": "Feature", "properties": {"norad_id": 33758, "name": "COSMOS 2251 DEB", "group": "cosmos-2251-debris", "lat": 17.92581498659127, "lon": 9.778805593608034, "alt_km": 722.3365470039435, "timestamp": "2025-12-23T07:45:09.797548+00:00", "meta": {"OBJECT_NAME": "COSMOS 2251 DEB", "OBJECT_ID": "1993-036F", "EPOCH": "2025-12-22T14:43:42.029760", "MEAN_MOTION": 14.5164787, "ECCENTRICITY": 0.00171787, "INCLINATION": 74.0263, "RA_OF_ASC_NODE": 196.4312, "ARG_OF_PERICENTER": 262.4772, "MEAN_ANOMALY": 153.4333, "EPHEMERIS_TYPE": 0, "CLASSIFICATION_TYPE": "U", "NORAD_CAT_ID": 33758, "ELEMENT_SET_NO": 999, "REV_AT_EPOCH": 88448, "BSTAR": 0.00069241889, "MEAN_MOTION_DOT": 2.755e-05, "MEAN_MOTION_DDOT": 0}, "tle": {"line1": "1 33758U 93036F   25356.61368090  .00002755  00000+0  69242-3 0  9995", "line2": "2 33758  74.0263 196.4312 0017178 262.4772 153.4333 14.51647870884487"}}, "geometry": {"type": "Point", "coordinates": [9.778805593608034, 17.92581498659127]}}, {"type": "Feature", "properties": {"norad_id": 33760, "name": "COSMOS 2251 DEB", "group": "cosmos-2251-debris", "lat": -34.515231570549766, "lon": 93.3894490447877, "alt_km": 790.0806458535117, "timestamp": "2025-12-23T07:45:09.797561+00:00", "meta": {"OBJECT_NAME": "COSMOS 2251 DEB", "OBJECT_ID": "1993-036H", "EPOCH": "2025-12-22T21:02:32.224704", "MEAN_MOTION": 14.35679105, "ECCENTRICITY": 0.0020311, "INCLINATION": 74.032, "RA_OF_ASC_NODE": 262.8525, "ARG_OF_PERICENTER": 358.761, "MEAN_ANOMALY": 71.8128, "EPHEMERIS_TYPE": 0, "CLASSIFICATION_TYPE": "U", "NORAD_CAT_ID": 33760, "ELEMENT_SET_NO": 999, "REV_AT_EPOCH": 88270, "BSTAR": 0.00010422716, "MEAN_MOTION_DOT": 2.75e-06, "MEAN_MOTION_DDOT": 0}, "tle": {"line1": "1 33760U 93036H   25356.87676186  .00000275  00000+0  10423-3 0  9996", "line2": "2 33760  74.0320 262.8525 0020311 358.7610  71.8128 14.35679105882707"}}, "geometry": {"type": "Point", "coordinates": [93.3894490447877, -34.515231570549766]}}, {"type": "Feature", "properties": {"norad_id": 33761, "name": "COSMOS 2251 DEB", "group": "cosmos-2251-debris", "lat": 44.829419799989424, "lon": -110.93899866073914, "alt_km": 747.5524948052453, "timestamp": "2025-12-23T07:45:09.797571+00:00", "meta": {"OBJECT_NAME": "COSMOS 2251 DEB", "OBJECT_ID": "1993-036J", "EPOCH": "2025-12-21T22:19:07.214304", "MEAN_MOTION": 14.42569564, "ECCENTRICITY": 0.00232733, "INCLINATION": 74.0352, "RA_OF_ASC_NODE": 235.1119, "ARG_OF_PERICENTER": 314.0482, "MEAN_ANOMALY": 61.202, "EPHEMERIS_TYPE": 0, "CLASSIFICATION_TYPE": "U", "NORAD_CAT_ID": 33761, "ELEMENT_SET_NO": 999, "REV_AT_EPOCH": 88367, "BSTAR": 0.00034386212, "MEAN_MOTION_DOT": 1.118e-05, "MEAN_MOTION_DDOT": 0}, "tle": {"line1": "1 33761U 93036J   25355.92994461  .00001118  00000+0  34386-3 0  9992", "line2": "2 33761  74.0352 235.1119 0023273 314.0482  61.2020 14.42569564883673"}}, "geometry": {"type": "Point", "coordinates": [-110.93899866073914, 44.829419799989424]}}, {"type": "Feature", "properties": {"norad_id": 33762, "name": "COSMOS 2251 DEB", "group": "cosmos-2251-debris", "lat": 69.94557989533624, "lon": -17.70949837047801, "alt_km": 771.9906441495432, "timestamp": "2025-12-23T07:45:09.797582+00:00", "meta": {"OBJECT_NAME": "COSMOS 2251 DEB", "OBJECT_ID": "1993-036K", "EPOCH": "2025-12-22T19:48:34.244640", "MEAN_MOTION": 14.33666653, "ECCENTRICITY": 0.00154223, "INCLINATION": 74.0422, "RA_OF_ASC_NODE": 291.5876, "ARG_OF_PERICENTER": 350.6444, "MEAN_ANOMALY": 39.5502, "EPHEMERIS_TYPE": 0, "CLASSIFICATION_TYPE": "U", "NORAD_CAT_ID": 33762, "ELEMENT_SET_NO": 999, "REV_AT_EPOCH": 88192, "BSTAR": 4.7837348e-05, "MEAN_MOTION_DOT": 1.07e-06, "MEAN_MOTION_DDOT": 0}, "tle": {"line1": "1 33762U 93036K   25356.82539635  .00000107  00000+0  47837-4 0  9994", "line2": "2 33762  74.0422 291.5876 0015422 350.6444  39.5502 14.33666653881925"}}, "geometry": {"type": "Point", "coordinates": [-17.70949837047801, 69.94557989533624]}}, {"type": "Feature", "properties": {"norad_id": 33764, "name": "COSMOS 2251 DEB", "group": "cosmos-2251-debris", "lat": 71.257027175314, "lon": -49.34574992147477, "alt_km": 765.013440773937, "timestamp": "2025-12-23T07:45:09.797592+00:00", "meta": {"OBJECT_NAME": "COSMOS 2251 DEB", "OBJECT_ID": "1993-036M", "EPOCH": "2025-12-22T23:05:43.969344", "MEAN_MOTION": 14.3953041, "ECCENTRICITY": 0.00234876, "INCLINATION": 74.0333, "RA_OF_ASC_NODE": 253.7809, "ARG_OF_PERICENTER": 217.5971, "MEAN_ANOMALY": 154.0883, "EPHEMERIS_TYPE": 0, "CLASSIFICATION_TYPE": "U", "NORAD_CAT_ID": 33764, "ELEMENT_SET_NO": 999, "REV_AT_EPOCH": 88304, "BSTAR": 0.00028191738, "MEAN_MOTION_DOT": 8.56e-06, "MEAN_MOTION_DDOT": 0}, "tle": {"line1": "1 33764U 93036M   25356.96231446  .00000856  00000+0  28192-3 0  9993", "line2": "2 33764  74.0333 253.7809 0023487 217.5971 154.0883 14.39530410883047"}}, "geometry": {"type": "Point", "coordinates": [-49.34574992147477, 71.257027175314]}}, {"type": "Feature", "properties": {"norad_id": 33765, "name": "COSMOS 2251 DEB", "group": "cosmos-2251-debris", "lat": 72.27072995287912, "lon": -145.01890895135065, "alt_km": 569.1595390782522, "timestamp": "2025-12-23T07:45:09.797603+00:00", "meta": {"OBJECT_NAME": "COSMOS 2251 DEB", "OBJECT_ID": "1993-036N", "EPOCH": "2025-12-22T20:47:53.687040", "MEAN_MOTION": 15.10518696, "ECCENTRICITY": 0.00649136, "INCLINATION": 74.0088, "RA_OF_ASC_NODE": 152.1574, "ARG_OF_PERICENTER": 242.6651, "MEAN_ANOMALY": 238.8801, "EPHEMERIS_TYPE": 0, "CLASSIFICATION_TYPE": "U", "NORAD_CAT_ID": 33765, "ELEMENT_SET_NO": 999, "REV_AT_EPOCH": 89771, "BSTAR": 0.0017156329, "MEAN_MOTION_DOT": 0.00029817, "MEAN_MOTION_DDOT": 0}, "tle": {"line1": "1 33765U 93036N   25356.86659360  .00029817  00000+0  17156-2 0  9997", "line2": "2 33765  74.0088 152.1574 0064913 242.6651 238.8801 15.10518696897711"}}, "geometry": {"type": "Point", "coordinates": [-145.01890895135065, 72.27072995287912]}}, {"type": "Feature", "properties": {"norad_id": 33766, "name": "COSMOS 2251 DEB", "group": "cosmos-2251-debris", "lat": -50.05480956324309, "lon": 95.98015771880632, "alt_km": 736.0270006177225, "timestamp": "2025-12-23T07:45:09.797614+00:00", "meta": {"OBJECT_NAME": "COSMOS 2251 DEB", "OBJECT_ID": "1993-036P", "EPOCH": "2025-12-22T16:56:12.547392", "MEAN_MOTION": 14.3496153, "ECCENTRICITY": 0.00646756, "INCLINATION": 74.1859, "RA_OF_ASC_NODE": 116.8817, "ARG_OF_PERICENTER": 317.5203, "MEAN_ANOMALY": 42.0954, "EPHEMERIS_TYPE": 0, "CLASSIFICATION_TYPE": "U", "NORAD_CAT_ID": 33766, "ELEMENT_SET_NO": 999, "REV_AT_EPOCH": 87888, "BSTAR": 0.00045393641, "MEAN_MOTION_DOT": 1.297e-05, "MEAN_MOTION_DDOT": 0}, "tle": {"line1": "1 33766U 93036P   25356.70570078  .00001297  00000+0  45394-3 0  9997", "line2": "2 33766  74.1859 116.8817 0064675 317.5203  42.0954 14.34961530878881"}}, "geometry": {"type": "Point", "coordinates": [95.98015771880632, -50.05480956324309]}}, {"type": "Feature", "properties": {"norad_id": 33768, "name": "COSMOS 2251 DEB", "group": "cosmos-2251-debris", "lat": -21.057366152162146, "lon": 29.10191053620452, "alt_km": 1293.827696160104, "timestamp": "2025-12-23T07:45:09.797625+00:00", "meta": {"OBJECT_NAME": "COSMOS 2251 DEB", "OBJECT_ID": "1993-036R", "EPOCH": "2025-12-22T20:38:18.111840", "MEAN_MOTION": 13.58463227, "ECCENTRICITY": 0.03667779, "INCLINATION": 74.0665, "RA_OF_ASC_NODE": 203.5348, "ARG_OF_PERICENTER": 359.0717, "MEAN_ANOMALY": 100.575, "EPHEMERIS_TYPE": 0, "CLASSIFICATION_TYPE": "U", "NORAD_CAT_ID": 33768, "ELEMENT_SET_NO": 999, "REV_AT_EPOCH": 83433, "BSTAR": 0.00030048284, "MEAN_MOTION_DOT": 3.18e-06, "MEAN_MOTION_DDOT": 0}, "tle": {"line1": "1 33768U 93036R   25356.85993185  .00000318  00000+0  30048-3 0  9996", "line2": "2 33768  74.0665 203.5348 0366777 359.0717 100.5750 13.58463227834330"}}, "geometry": {"type": "Point", "coordinates": [29.10191053620452, -21.057366152162146]}}]}